#dP2023  8  2  0  0  0.00000000      96 __u+U ITR00 FIT  IAC
## 2273 259200.00000000   900.00000000 60158 0.0000000000000
+  119   C06C07C08C09C10C11C12C13C14C16C19C20C21C22C23C24C25
+        C26C27C28C29C30C32C33C34C35C36C37C38C39C40C41C42C43
+        C44C45C46E02E03E04E05E07E08E09E10E11E12E13E14E15E18
+        E19E21E24E25E26E27E30E31E33E34E36G01G02G03G04G05G06
+        G07G08G09G10G11G12G13G14G15G16G17G18G19G20G21G22G23
+        G24G25G26G27G28G29G30G31G32J02J03J04R01R02R03R04R05
+        R07R08R09R11R12R13R14R15R16R17R18R19R20R21R22R24R25
++         8  9  7  8  9  7  6  8  7  7  6  8  5  6  6  6  6
++         6  7  7  6  7  6  7  8  6  6  7  8  9 10  8  7  7
++         6  6  6  5  6  6  8  5  7  6  6  6  5  6  5  6  4
++         5  6  5  6  5  6  6  6  4  6  5  4  5  4  5  5  6
++         5  5  5  5  6  5  6  5  5  5  6  5  6  5  5  8  6
++         6  4  5  6  7  6  5  6  5  7  8  7  7  6  7  8  7
++         5  6  5  6  5  7  7  6  5  6  6  7  8  6  6  7  6
%c M  cc GPS ccc cccc cccc cccc cccc ccccc ccccc ccccc ccccc
%c cc cc ccc ccc cccc cccc cccc cccc ccccc ccccc ccccc ccccc
%f  0.0000000  0.000000000  0.00000000000  0.000000000000000
%f  0.0000000  0.000000000  0.00000000000  0.000000000000000
%i    0    0    0    0      0      0      0      0         0
%i    0    0    0    0      0      0      0      0         0
/* INFORMATION & ANALYSIS CENTER (IAC)      ULTRA-RAPID DATA
/* S/V CLOCKS ARE ALIGNED TO GNSS TIME                      
/* G:C1WC2W R:C1PC2P E:C1XC5X C:C2IC6I J:C1CC2S             
/* PCV:IGS20_2247 OL/AL:FES2004  NONE     YN ORB:CoN CLK:CoN
*  2023 08 02  1 15  0.00000000
PC06  -7112.132523  23690.339844 -34109.189491    762.811226
PC07 -16620.297050  35238.266481  15920.391366    134.511811
PC08  -2884.860219  39058.663787  15859.986957    406.246452
PC09   3036.026930  26754.392413 -31877.367473    343.735020
PC10 -10211.803703  35076.977510  20898.965895   -132.572056
PC11  -6138.371354  14404.622132  23160.405437    757.460533
PC12 -23519.897985   5260.270793  14086.560623    836.314907
PC13   1495.858171  41154.034592   9834.859103    326.686386
PC14 -11403.073480  23830.294794  -8889.036422    156.837499
PC16  -8734.224693  22346.703176 -34406.333409    -18.156404
PC19   3368.850407 -22166.711316  16649.184359   -951.245481
PC20  16752.371427 -22294.869834   1446.741088    392.546152
PC21 -21114.443927   8839.914988  15952.507865   -943.061243
PC22 -12653.196380  -9286.832193  23065.510660   -369.763384
PC23  15810.615137  20616.198709  10199.952125   -920.446256
PC24  -9167.024682  16906.619561 -20232.361920    238.466522
PC25   5995.292636  26520.589702  -6333.026391    180.577863
PC26 -17415.523529  -1094.388125 -21781.806757   -157.258289
PC27  27131.908662    -54.006700  -6539.151122    178.340730
PC28  23808.761390  10857.028782   9711.033678    133.195737
PC29  -5559.116462 -16226.689112 -22019.288607    155.295024
PC30  16030.939405 -11750.244782 -19591.521506     -2.930655
PC32  21045.181183  -8948.666525 -15994.060944   -534.740352
PC33  -3293.836770  22215.539997 -16554.056610   -926.966314
PC34 -14728.465461  12381.127842  20202.866300    227.954736
PC35 -24003.808559 -10192.364901  -9992.655553 999999.999999
PC36  -4774.964215 -26569.744664   7086.634474   -297.936366
PC37  17616.511672   2617.392539  21506.986004   -800.906778
PC38  -8091.342357  35045.847462  22153.033140     95.466358
PC39 -14986.905497  19874.112661 -34012.493849     -4.104154
PC40 -24603.814904  30697.676082  14801.746555    -31.447531
PC41  12209.439364   9876.515742 -23020.413280   -893.874675
PC42 -17479.970641  21734.225326     30.483117   -591.639526
PC43   4513.383188  16353.314082  22142.944957     33.408741
PC44 -27183.799139    946.334096   6279.101817    187.166155
PC45 -15905.854727 -20274.115406 -10676.948973     -9.027063
PC46   8203.592096 -17978.415821  19693.491351    -73.384557
PE02   3340.922862  26619.808269  12521.690661     53.223078
PE03   6941.512957  15554.748712 -24211.464254    -41.860477
PE04 -24354.055483  -3817.611722  16389.702528   -180.023907
PE05 -14736.815130  18333.445421 -17964.003712      5.137946
PE07  27790.794902 -10169.774334    917.402864    -64.320299
PE08  24096.415284   3973.672226 -16735.045510   -123.779113
PE09 -27806.676643  10093.455039   -757.600093   -105.653292
PE10 -24008.967911  -7587.939902  15538.505918   -552.970165
PE11 -19528.924845   1972.029663  22140.519255   2629.635966
PE12 -24399.362632 -15167.737403   7138.378644   -641.640541
PE13  19915.656324  -1301.188668 -21863.650548    -19.382459
PE14   7739.786352 -21295.923753 -22374.513675    299.323638
PE15  24354.558103  15389.698730  -6801.019624    -41.802915
PE18   6355.532004  14899.200833  19005.594793    365.145469
PE19  -3958.987533 -16426.506118  24311.032502  -1943.332258
PE21   9121.075508 -27705.194595   5051.813997   -544.210687
PE24 -17194.466010  12058.759052 -20873.731576   -242.617256
PE25  -9316.811752  27576.497120  -5367.831073   -609.208984
PE26   3305.979933 -17549.449384 -23608.210256    180.533249
PE27  17013.701614 -12778.986121  20582.164995   -114.106941
PE30  14633.978385  10074.724846  23673.091252   -384.172370
PE31 -14791.577570  -9494.658527 -23803.992822     -1.719631
PE33 -13953.236384 -22863.665977 -12591.852064     -1.983702
PE34  14545.164295  22818.713898  12001.901727    -59.290580
PE36  -3885.278842  16994.621435  23916.165425    -94.825652
PG01 -21492.047402 -14014.061102   7174.591200    170.271696
PG02 -21506.545606 -15715.271119   1207.696953   -569.960696
PG03 -13527.151702  -6463.196518  21789.991064   -206.573734
PG04 -23815.805301  -1908.630371  11737.449739    113.145418
PG05   6645.799410  21101.928311 -14801.124217   -137.192406
PG06  -3155.619863  15987.296764  21011.956592    571.578789
PG07 -19046.067121    151.908986 -18236.391130    107.810225
PG08 -16025.018939  -8925.632000 -19420.291507   -135.155288
PG09 -25614.777101   6406.746860   3009.680236    -97.310047
PG10  10973.475308 -22300.895467  -8721.577896    -47.569660
PG11   9844.321718  21681.306567  11822.208180   -302.074286
PG12  11727.826195  11133.522869  20808.332218   -407.907047
PG13   7290.264437  13835.104553 -21680.927958    554.836054
PG14 -13460.315187  19796.695527 -11306.975423    141.070214
PG15  17541.513647   7314.740135 -19122.421301     63.661418
PG16  -1217.595613 -23579.134726 -12003.299741   -473.575086
PG17 -18903.991130  13807.266162  13078.539419    722.073425
PG18  17048.290058  -2729.641055 -20231.702989   -367.531045
PG19 -12140.569406  14902.095405  17969.945287    351.985329
PG20   1918.591555  26195.635830  -4540.610754    419.466631
PG21 -20756.962715 -17231.893279  -1391.775491    151.367289
PG22   8180.303267 -16026.757948  19939.290915    521.228039
PG23  14970.590510 -12002.896604 -18286.947140     50.055434
PG24  22002.161603  15116.984311   1883.412053   -276.826767
PG25  15812.321554  -3818.215133  20634.218994    459.720425
PG26   3869.115832 -26084.958525   -121.271816    234.488323
PG27  -3597.797385 -14784.291104 -22008.872911    -14.434395
PG28   4797.994660 -15329.857726  21132.683686     79.435297
PG29  26121.858654  -3459.421417   3707.046582   -606.918472
PG30 -12379.433446   9862.402696 -21223.227011   -499.770011
PG31  -5023.188044 -20397.365336  15814.793722   -221.126806
PG32  15282.844899 -15862.849041  14879.815927   -532.798336
PJ02 -24281.023294  30599.923396 -11130.708512     -2.036882
PJ03 -27262.459178  22519.654285  28014.748383     -0.575944
PJ04 -30984.079702  28635.549621   5616.920483     98.079998
PR01  -6199.593607  17095.722432 -17883.804437     62.624713
PR02   9392.617706   6076.361274 -22877.426080    -22.569080
PR03  19577.385544  -7966.963808 -14192.791880     82.501630
PR04  18790.630875 -17115.691681   2096.692756    197.024090
PR05   7856.594515 -17046.240441  17269.657269    116.675920
PR07 -19866.599760   8552.364966  13599.919093     61.499826
PR08 -18664.276810  17271.753599  -2151.881501    -71.929022
PR09 -10847.682283 -18906.145501 -13295.797599    134.430766
PR11  -6556.133309  14797.606182 -19694.157948   -120.501122
PR12   2973.841687  25042.209131  -3846.605403     29.725233
PR13   9928.399435  20378.092845  11688.643578    -37.711536
PR14  11640.784632   2143.420185  22611.042886     25.039181
PR15   6230.390337 -15925.990510  18955.148386     87.353436
PR16  -2988.573206 -24997.964621   4239.930826     17.288030
PR17  23706.395497   4453.469360  -8365.893177      5.122306
PR18  13984.605390  -4784.988550 -20766.494632     94.642149
PR19   -949.093506 -11329.360630 -22837.887158   -241.976374
PR20 -19667.180588 -12791.788812 -10050.172874    -97.599724
PR21 -23315.477411  -3984.952303   9499.591681    -27.195395
PR22 -13470.363042   5221.426606  21047.103671    105.834874
PR24  20392.624854  12123.688715   9414.399836    -18.871052
PR25 -23502.078112  -5418.122342   8268.206035     44.630179
EOF
